[{"OBJECT_NAME":"STARLINK-35028","OBJECT_ID":"2025-191C","EPOCH":"2026-03-09T14:53:25.895040","MEAN_MOTION":15.05649242,"ECCENTRICITY":0.0002533,"INCLINATION":97.602,"RA_OF_ASC_NODE":301.5308,"ARG_OF_PERICENTER":89.3029,"MEAN_ANOMALY":270.8488,"EPHEMERIS_TYPE":0,"CLASSIFICATION_TYPE":"U","NORAD_CAT_ID":65381,"ELEMENT_SET_NO":999,"REV_AT_EPOCH":3026,"BSTAR":0.0003301,"MEAN_MOTION_DOT":4.705e-5,"MEAN_MOTION_DDOT":0},{"OBJECT_NAME":"FENGYUN 1C DEB","OBJECT_ID":"1999-025CYT","EPOCH":"2026-03-07T13:55:54.215040","MEAN_MOTION":14.53584795,"ECCENTRICITY":0.0265155,"INCLINATION":98.2146,"RA_OF_ASC_NODE":114.8135,"ARG_OF_PERICENTER":36.9946,"MEAN_ANOMALY":324.9212,"EPHEMERIS_TYPE":0,"CLASSIFICATION_TYPE":"U","NORAD_CAT_ID":32350,"ELEMENT_SET_NO":999,"REV_AT_EPOCH":98759,"BSTAR":0.0011205,"MEAN_MOTION_DOT":7.432e-5,"MEAN_MOTION_DDOT":0}]
